[{"OBJECT_NAME":"GALAXY 32 (G-32)","OBJECT_ID":"2022-153B","EPOCH":"2026-03-04T04:27:38.803392","MEAN_MOTION":1.00267915,"ECCENTRICITY":0.00030041,"INCLINATION":0.0222,"RA_OF_ASC_NODE":132.7365,"ARG_OF_PERICENTER":225.3208,"MEAN_ANOMALY":139.8078,"EPHEMERIS_TYPE":0,"CLASSIFICATION_TYPE":"U","NORAD_CAT_ID":54244,"ELEMENT_SET_NO":999,"REV_AT_EPOCH":1209,"BSTAR":0,"MEAN_MOTION_DOT":0,"MEAN_MOTION_DDOT":0},{"OBJECT_NAME":"EUTELSAT 10B","OBJECT_ID":"2022-157A","EPOCH":"2026-03-06T19:08:27.173472","MEAN_MOTION":1.00268725,"ECCENTRICITY":0.0001642,"INCLINATION":0.0575,"RA_OF_ASC_NODE":102.156,"ARG_OF_PERICENTER":6.3934,"MEAN_ANOMALY":353.025,"EPHEMERIS_TYPE":0,"CLASSIFICATION_TYPE":"U","NORAD_CAT_ID":54259,"ELEMENT_SET_NO":999,"REV_AT_EPOCH":1200,"BSTAR":0,"MEAN_MOTION_DOT":6.4e-7,"MEAN_MOTION_DDOT":0},{"OBJECT_NAME":"GALAXY 35 (G-35)","OBJECT_ID":"2022-170A","EPOCH":"2026-03-06T13:30:52.042176","MEAN_MOTION":1.0027094,"ECCENTRICITY":0.00020186,"INCLINATION":0.0101,"RA_OF_ASC_NODE":183.2274,"ARG_OF_PERICENTER":165.8039,"MEAN_ANOMALY":284.8523,"EPHEMERIS_TYPE":0,"CLASSIFICATION_TYPE":"U","NORAD_CAT_ID":54741,"ELEMENT_SET_NO":999,"REV_AT_EPOCH":1186,"BSTAR":0,"MEAN_MOTION_DOT":-1.66e-6,"MEAN_MOTION_DDOT":0},{"OBJECT_NAME":"GALAXY 36 (G-36)","OBJECT_ID":"2022-170B","EPOCH":"2026-03-06T13:32:06.923328","MEAN_MOTION":1.00272392,"ECCENTRICITY":0.00021132,"INCLINATION":0.0191,"RA_OF_ASC_NODE":136.206,"ARG_OF_PERICENTER":263.5936,"MEAN_ANOMALY":238.4982,"EPHEMERIS_TYPE":0,"CLASSIFICATION_TYPE":"U","NORAD_CAT_ID":54742,"ELEMENT_SET_NO":999,"REV_AT_EPOCH":1174,"BSTAR":0,"MEAN_MOTION_DOT":-1.89e-6,"MEAN_MOTION_DDOT":0},{"OBJECT_NAME":"METEOSAT-12 (MTG-I1)","OBJECT_ID":"2022-170C","EPOCH":"2026-03-06T19:05:27.459744","MEAN_MOTION":1.00270038,"ECCENTRICITY":0.0002003,"INCLINATION":0.7034,"RA_OF_ASC_NODE":21.7646,"ARG_OF_PERICENTER":288.2963,"MEAN_ANOMALY":140.4983,"EPHEMERIS_TYPE":0,"CLASSIFICATION_TYPE":"U","NORAD_CAT_ID":54743,"ELEMENT_SET_NO":999,"REV_AT_EPOCH":1195,"BSTAR":0,"MEAN_MOTION_DOT":-1.1e-7,"MEAN_MOTION_DDOT":0},{"OBJECT_NAME":"SHIJIAN-23 (SJ-23)","OBJECT_ID":"2023-002A","EPOCH":"2026-03-06T18:23:43.629216","MEAN_MOTION":1.00487356,"ECCENTRICITY":0.0005824,"INCLINATION":3.4543,"RA_OF_ASC_NODE":79.6245,"ARG_OF_PERICENTER":263.1966,"MEAN_ANOMALY":228.9362,"EPHEMERIS_TYPE":0,"CLASSIFICATION_TYPE":"U","NORAD_CAT_ID":55131,"ELEMENT_SET_NO":999,"REV_AT_EPOCH":1148,"BSTAR":0,"MEAN_MOTION_DOT":-3.06e-6,"MEAN_MOTION_DDOT":0},{"OBJECT_NAME":"APSTAR-6E","OBJECT_ID":"2023-005A","EPOCH":"2026-03-06T19:43:46.286400","MEAN_MOTION":1.0027087,"ECCENTRICITY":0.0001206,"INCLINATION":0.0471,"RA_OF_ASC_NODE":247.1594,"ARG_OF_PERICENTER":65.5721,"MEAN_ANOMALY":281.739,"EPHEMERIS_TYPE":0,"CLASSIFICATION_TYPE":"U","NORAD_CAT_ID":55239,"ELEMENT_SET_NO":999,"REV_AT_EPOCH":1766,"BSTAR":0,"MEAN_MOTION_DOT":-3.21e-6,"MEAN_MOTION_DDOT":0},{"OBJECT_NAME":"USA 342","OBJECT_ID":"2023-008A","EPOCH":"2026-03-03T19:19:23.105856","MEAN_MOTION":1.00270437,"ECCENTRICITY":4.21e-5,"INCLINATION":0.019,"RA_OF_ASC_NODE":154.74,"ARG_OF_PERICENTER":181.7368,"MEAN_ANOMALY":138.7753,"EPHEMERIS_TYPE":0,"CLASSIFICATION_TYPE":"U","NORAD_CAT_ID":55263,"ELEMENT_SET_NO":999,"REV_AT_EPOCH":1146,"BSTAR":0,"MEAN_MOTION_DOT":0,"MEAN_MOTION_DDOT":0},{"OBJECT_NAME":"LDPE-3A","OBJECT_ID":"2023-008B","EPOCH":"2026-03-06T18:21:46.647936","MEAN_MOTION":0.99222798,"ECCENTRICITY":7.53e-5,"INCLINATION":2.0808,"RA_OF_ASC_NODE":82.9893,"ARG_OF_PERICENTER":39.1868,"MEAN_ANOMALY":164.3711,"EPHEMERIS_TYPE":0,"CLASSIFICATION_TYPE":"U","NORAD_CAT_ID":55264,"ELEMENT_SET_NO":999,"REV_AT_EPOCH":1079,"BSTAR":0,"MEAN_MOTION_DOT":2.8e-7,"MEAN_MOTION_DDOT":0},{"OBJECT_NAME":"ELEKTRO-L 4","OBJECT_ID":"2023-016A","EPOCH":"2026-03-06T02:01:38.709984","MEAN_MOTION":1.00272112,"ECCENTRICITY":0.0001778,"INCLINATION":0.0979,"RA_OF_ASC_NODE":294.756,"ARG_OF_PERICENTER":352.4264,"MEAN_ANOMALY":72.7704,"EPHEMERIS_TYPE":0,"CLASSIFICATION_TYPE":"U","NORAD_CAT_ID":55506,"ELEMENT_SET_NO":999,"REV_AT_EPOCH":1130,"BSTAR":0,"MEAN_MOTION_DOT":-6.5e-7,"MEAN_MOTION_DDOT":0},{"OBJECT_NAME":"AMAZONAS NEXUS","OBJECT_ID":"2023-017A","EPOCH":"2026-03-04T03:36:14.719968","MEAN_MOTION":1.00275833,"ECCENTRICITY":0.00044502,"INCLINATION":0.0414,"RA_OF_ASC_NODE":44.7348,"ARG_OF_PERICENTER":317.0979,"MEAN_ANOMALY":153.1232,"EPHEMERIS_TYPE":0,"CLASSIFICATION_TYPE":"U","NORAD_CAT_ID":55508,"ELEMENT_SET_NO":999,"REV_AT_EPOCH":599,"BSTAR":0,"MEAN_MOTION_DOT":-2.95e-6,"MEAN_MOTION_DDOT":0},{"OBJECT_NAME":"ZHONGXING-26","OBJECT_ID":"2023-023A","EPOCH":"2026-03-06T11:07:51.422304","MEAN_MOTION":1.00273447,"ECCENTRICITY":0.00035392,"INCLINATION":0.0661,"RA_OF_ASC_NODE":72.8578,"ARG_OF_PERICENTER":326.8005,"MEAN_ANOMALY":56.5699,"EPHEMERIS_TYPE":0,"CLASSIFICATION_TYPE":"U","NORAD_CAT_ID":55686,"ELEMENT_SET_NO":999,"REV_AT_EPOCH":1120,"BSTAR":0,"MEAN_MOTION_DOT":-3.58e-6,"MEAN_MOTION_DDOT":0},{"OBJECT_NAME":"LUCH-5X (OLYMP-K 2)","OBJECT_ID":"2023-031A","EPOCH":"2026-03-06T17:49:31.088352","MEAN_MOTION":1.00272488,"ECCENTRICITY":0.0001883,"INCLINATION":0.0266,"RA_OF_ASC_NODE":89.0877,"ARG_OF_PERICENTER":121.3958,"MEAN_ANOMALY":283.3421,"EPHEMERIS_TYPE":0,"CLASSIFICATION_TYPE":"U","NORAD_CAT_ID":55841,"ELEMENT_SET_NO":999,"REV_AT_EPOCH":1091,"BSTAR":0,"MEAN_MOTION_DOT":3.0e-7,"MEAN_MOTION_DDOT":0},{"OBJECT_NAME":"GAOFEN-13 02","OBJECT_ID":"2023-036A","EPOCH":"2026-03-06T18:47:38.740128","MEAN_MOTION":1.00275001,"ECCENTRICITY":0.0005245,"INCLINATION":1.0314,"RA_OF_ASC_NODE":348.0684,"ARG_OF_PERICENTER":334.8254,"MEAN_ANOMALY":271.6952,"EPHEMERIS_TYPE":0,"CLASSIFICATION_TYPE":"U","NORAD_CAT_ID":55912,"ELEMENT_SET_NO":999,"REV_AT_EPOCH":1106,"BSTAR":0,"MEAN_MOTION_DOT":-2.22e-6,"MEAN_MOTION_DDOT":0},{"OBJECT_NAME":"SES-18","OBJECT_ID":"2023-038A","EPOCH":"2026-03-06T11:45:25.320096","MEAN_MOTION":1.00272241,"ECCENTRICITY":0.00023293,"INCLINATION":0.0549,"RA_OF_ASC_NODE":272.3494,"ARG_OF_PERICENTER":39.3545,"MEAN_ANOMALY":285.748,"EPHEMERIS_TYPE":0,"CLASSIFICATION_TYPE":"U","NORAD_CAT_ID":55970,"ELEMENT_SET_NO":999,"REV_AT_EPOCH":1107,"BSTAR":0,"MEAN_MOTION_DOT":-1.05e-6,"MEAN_MOTION_DDOT":0},{"OBJECT_NAME":"SES-19","OBJECT_ID":"2023-038B","EPOCH":"2026-03-06T09:53:36.042144","MEAN_MOTION":1.00273417,"ECCENTRICITY":0.00017027,"INCLINATION":0.0491,"RA_OF_ASC_NODE":290.0994,"ARG_OF_PERICENTER":54.8939,"MEAN_ANOMALY":192.6323,"EPHEMERIS_TYPE":0,"CLASSIFICATION_TYPE":"U","NORAD_CAT_ID":55971,"ELEMENT_SET_NO":999,"REV_AT_EPOCH":1105,"BSTAR":0,"MEAN_MOTION_DOT":8.3e-7,"MEAN_MOTION_DDOT":0},{"OBJECT_NAME":"INTELSAT 40E (IS-40E)","OBJECT_ID":"2023-052A","EPOCH":"2026-03-04T08:25:14.679840","MEAN_MOTION":1.00269079,"ECCENTRICITY":7.371e-5,"INCLINATION":0.0076,"RA_OF_ASC_NODE":149.4349,"ARG_OF_PERICENTER":212.9293,"MEAN_ANOMALY":195.0275,"EPHEMERIS_TYPE":0,"CLASSIFICATION_TYPE":"U","NORAD_CAT_ID":56174,"ELEMENT_SET_NO":999,"REV_AT_EPOCH":1077,"BSTAR":0,"MEAN_MOTION_DOT":-1.85e-6,"MEAN_MOTION_DDOT":0}]
